FORMOSAT 7-3            
1 44343U 19036E   21217.21086957  .00000912  00000-0  36161-4 0  9991
2 44343  23.9993 157.3371 0010430 185.5385 174.5003 15.07860978114473
DSX                     
1 44344U 19036F   21217.48247968 -.00000006  00000-0  00000+0 0  9995
2 44344  42.2579 281.1295 1969013 331.9454  18.7717  4.54371293 35092
OCULUS-ASR              
1 44348U 19036K   21217.55665996  .00015056  00000-0  19806-3 0  9990
2 44348  28.5092 166.7929 0324191  79.0364 284.6520 15.13763595116358
FORMOSAT 7-1            
1 44349U 19036L   21217.60802110  .00000982  00000-0  40530-4 0  9999
2 44349  24.0008 330.6423 0011720 228.5158 131.4339 15.07860913116364
FORMOSAT 7-4            
1 44350U 19036M   21216.83585154  .00000981  00000-0  40746-4 0  9999
2 44350  24.0004  38.0338 0005810 267.1931  92.7907 15.07860712115600
FORMOSAT 7-2            
1 44351U 19036N   21217.32130452  .00000925  00000-0  36836-4 0  9995
2 44351  23.9996  89.0612 0014423 306.9689  52.9493 15.07853371115197
ARMADILLO               
1 44352U 19036P   21217.46860618  .00021420  00000-0  25952-3 0  9994
2 44352  28.5252 142.2506 0289709 117.0130 246.0346 15.22340256116544
FORMOSAT 7-6            
1 44353U 19036Q   21217.45399527  .00000871  00000-0  33883-4 0  9990
2 44353  23.9990 268.9503 0002627 329.6969  30.3382 15.07856353113453
PSAT2 (NO-104)          
1 44354U 19036R   21217.53495920  .00014915  00000-0  19107-3 0  9990
2 44354  28.5250 159.4016 0318927  88.8667 274.8441 15.15348666116411
BRICSAT2 (NO-103)       
1 44355U 19036S   21216.03600080  .00033513 -57287-5  33146-3 0  9999
2 44355  28.5255 116.0962 0249023 159.4537 201.6278 15.33540392116738
2019-036U               
1 44357U 19036U   21217.54257865  .00015140  00000-0  19035-3 0  9999
2 44357  28.5227 157.2438 0319514  92.6007 271.1197 15.15633709116442
FORMOSAT 7-5            
1 44358U 19036V   21217.63036138  .00000883  00000-0  34501-4 0  9992
2 44358  23.9988 207.4858 0007079 106.1808 253.9474 15.07856851113999
CP9 (LEO)               
1 44360U 19036X   21217.75759502  .00067764 -55484-5  36137-3 0  9994
2 44360  28.5024  24.6032 0153854 311.1368  47.6048 15.63451792117658
2019-036Y               
1 44361U 19036Y   21217.79741370  .00062185 -57342-5  35019-3 0  9998
2 44361  28.5101  29.1494 0163735 303.1947  55.3053 15.60684498117627
RED-EYE 1 (PINOT)       
1 44364U 98067QJ  21217.31199689  .00007511  00000-0  96263-4 0  9994
2 44364  51.6394  68.2844 0006345  70.8813 289.2867 15.60282585119812
PAINANI 1               
1 44365U 19037A   21217.64541672  .00004043  00000-0  10163-3 0  9995
2 44365  45.0059 343.5293 0003678 156.9134 203.1920 15.41753626118365
PROMETHEUS 2-9          
1 44366U 19037B   21217.58842955  .00008060  00000-0  16462-3 0  9998
2 44366  45.0094 329.9359 0003032 163.5248 196.5742 15.46722404118520
GLOBAL-3                
1 44367U 19037C   21217.80705871  .00003281  00000-0  85711-4 0  9993
2 44367  45.0081 340.6173 0006368 118.7059 241.4470 15.41134503118416
ELECTRON KICK STAGE R/B 
1 44368U 19037D   21217.57492889  .00010773  00000-0  18663-3 0  9995
2 44368  45.0049 314.3628 0005218 158.4572 201.6540 15.51124174118700
ACRUX 1                 
1 44369U 19037E   21217.50346256  .00007611  00000-0  14687-3 0  9994
2 44369  45.0063 319.0002 0007343 128.0077 232.1479 15.48443040118598
SPACEBEE-9              
1 44370U 19037F   21217.58417658  .00026633  00000-0  31813-3 0  9994
2 44370  44.9982 297.4529 0000480  63.4766 296.6179 15.60588412118851
PROMETHEUS 2-7          
1 44374U 19037K   21217.58510482  .00008987  00000-0  17889-3 0  9996
2 44374  45.0077 328.1877 0002913 167.4157 192.6807 15.47339280118352
PROMETHEUS 2-6          
1 44386U 19036AB  21217.32403894  .00026244 -61090-5  22642-3 0  9999
2 44386  28.5365  91.0365 0229158 199.5997 159.5672 15.39639188115809
METEOR-M2 2             
1 44387U 19038A   21217.87878675 -.00000031  00000-0  56940-5 0  9990
2 44387  98.6735 177.0295 0002425  96.0953 264.0502 14.23689825108503
2019-038B               
1 44388U 19038B   21217.87289508  .00001472  00000-0  12627-3 0  9993
2 44388  97.7716 182.5333 0019217 208.4174 151.6002 14.98950049114096
ICEYE-X5                
1 44389U 19038C   21217.85824879  .00001146  00000-0  10404-3 0  9997
2 44389  97.7818 182.4278 0019871 201.1589 158.8828 14.97131180114050
ICEYE-X4                
1 44390U 19038D   21217.85003823  .00000464  00000-0  45384-4 0  9995
2 44390  97.7792 182.2250 0019963 202.2002 157.8361 14.96981739114058
NSL-1                   
1 44391U 19038E   21217.85644443  .00001855  00000-0  16103-3 0  9996
2 44391  97.7787 182.8031 0019172 198.2446 161.8091 14.98154164114011
VDNH-80                 
1 44392U 19038G   21217.84758777  .00001150  00000-0  67009-4 0  9992
2 44392  97.5902 182.2930 0021938 138.5207 281.3718 15.13839875115063
D-STAR ONE (LIGHTSAT)   
1 44393U 19038H   21217.90325579  .00001251  00000-0  72782-4 0  9996
2 44393  97.5914 182.2214 0022434 138.7418 221.5513 15.13738426115261
AMGU-1 (AMURSAT)        
1 44394U 19038J   21217.85309667  .00001130  00000-0  66104-4 0  9998
2 44394  97.5904 182.1144 0022209 139.1964 221.0935 15.13743958115251
2019-038K               
1 44395U 19038K   21217.87062589  .00000418  00000-0  27561-4 0  9992
2 44395  97.5915 181.3476 0025856 138.6101 287.3516 15.12656864115192
LEMUR-2-LILLYJO         
1 44396U 19038L   21217.89600969  .00002214  00000-0  12318-3 0  9994
2 44396  97.5806 181.7847 0025043 133.9456 226.3848 15.14463355115269
2019-038M               
1 44397U 19038M   21217.84133929  .00001121  00000-0  66423-4 0  9990
2 44397  97.5903 181.5273 0025485 135.8060 224.5214 15.13213472115215
MOVE-IIB                
1 44398U 19038N   21217.95326642  .00002043  00000-0  11593-3 0  9990
2 44398  97.5861 181.7517 0025131 135.3630 224.9631 15.13852828115253
DOT-1                   
1 44399U 19038P   21217.90776414  .00000849  00000-0  51898-4 0  9997
2 44399  97.5937 181.5847 0025287 142.7360 217.5632 15.12768232115215
SONATE                  
1 44400U 19038Q   21217.86370966  .00000643  00000-0  40339-4 0  9997
2 44400  97.5934 181.4957 0025799 136.8512 223.4747 15.12634908115201
2019-038R               
1 44401U 19038R   21217.91542586  .00001146  00000-0  67239-4 0  9990
2 44401  97.5898 181.8566 0025031 134.0893 226.2404 15.13548459115243
LEMUR-2-WANLI           
1 44402U 19038S   21217.87525965  .00001809  00000-0  10199-3 0  9996
2 44402  97.5821 181.7228 0025067 134.4956 225.8330 15.14223645115260
LEMUR-2-MORAG           
1 44403U 19038T   21217.88199179  .00001862  00000-0  10390-3 0  9994
2 44403  97.5854 182.2040 0023773 137.1126 223.1965 15.14581644115278
SOKRAT                  
1 44404U 19038U   21217.87818238  .00001231  00000-0  72006-4 0  9991
2 44404  97.5906 181.9047 0022653 140.5984 219.6900 15.13567969115245
LEMUR-2-DUSTINTHEWIND   
1 44405U 19038V   21217.85117286  .00001742  00000-0  98603-4 0  9993
2 44405  97.5811 181.6524 0024963 133.8231 226.5070 15.14148780115268
LUCKY-7                 
1 44406U 19038W   21217.45721338  .00000873  00000-0  52790-4 0  9990
2 44406  97.5931 181.3651 0025260 137.1478 223.1727 15.13055642115154
LEMUR-2-ALEX-MADDY      
1 44407U 19038X   21217.87534257  .00001325  00000-0  77073-4 0  9993
2 44407  97.5877 181.8073 0023960 139.3514 220.9511 15.13606090115231
MOMENTUS-X1             
1 44408U 19038Y   21217.85708532  .00000555  00000-0  35319-4 0  9992
2 44408  97.5876 181.2345 0024486 139.3121 220.9945 15.12674142115216
LEMUR-2-EJATTA          
1 44409U 19038Z   21217.85815350  .00002286  00000-0  12641-3 0  9995
2 44409  97.5801 181.9077 0024830 132.4557 227.8780 15.14659445115285
D-STAR ONE (EXOCONNECT) 
1 44410U 19038AA  21217.88009294  .00001925  00000-0  10795-3 0  9999
2 44410  97.5877 182.2230 0022368 138.0502 222.2448 15.14401200115274
LEMUR-2-GREGROBINSON    
1 44411U 19038AB  21217.85480519  .00002400  00000-0  13320-3 0  9996
2 44411  97.5861 182.1751 0023900 138.4287 221.8767 15.14493677114932
BEESAT 9                
1 44412U 19038AC  21217.86190055  .00001195  00000-0  70247-4 0  9993
2 44412  97.5913 181.8083 0023122 140.3995 219.8930 15.13423357114924
LEMUR-2-YNDRD           
1 44413U 19038AD  21217.87045449  .00001212  00000-0  70963-4 0  9996
2 44413  97.5867 181.7319 0023846 139.0237 221.2791 15.13527645115244
2019-038AE              
1 44414U 19038AE  21217.89335013  .00001088  00000-0  65202-4 0  9999
2 44414  97.5931 181.7748 0024467 141.9116 274.3626 15.12901028114752
NARSSCUBE-2             
1 44415U 19022E   21217.24662415  .00001389  00000-0  57404-4 0  9990
2 44415  51.6420 203.2731 0011381   2.4446 357.6589 15.31223138111623
QUANTUM-RADAR 3         
1 44416U 19022F   21217.23925049  .00003526  00000-0  11809-3 0  9998
2 44416  51.6387 198.0738 0010806   5.6664 354.4438 15.33627595111672
RFTSAT                  
1 44417U 19022G   21217.64636534  .00002012  00000-0  74845-4 0  9991
2 44417  51.6400 198.5056 0011267   5.6920 354.4188 15.32492062111742
ORCA-1                  
1 44418U 19022H   21217.83311531  .00002503  00000-0  85609-4 0  9995
2 44418  51.6412 193.8828 0011118   6.9764 353.1371 15.34234163111823
JAISAT-1                
1 44419U 19038F   21217.55147135  .00001181  00000-0  68616-4 0  9999
2 44419  97.5915 182.0851 0022014 139.4260 220.8617 15.13907574115228
LIGHTSAIL 2             
1 44420U 19036AC  21217.72118849  .00005885  00000-0  11510-2 0  9992
2 44420  24.0060 359.9881 0018191   4.5188 355.5468 14.60133175110703
COSMOS 2536             
1 44422U 19039B   21217.78513753  .00001349  00000-0  16139-3 0  9990
2 44422  97.7885 267.4686 0009207   2.9927 357.1337 14.85732708112343
COSMOS 2537             
1 44423U 19039C   21217.75957918  .00002090  00000-0  24306-3 0  9992
2 44423  97.8163 269.4409 0009312 355.6648   4.4460 14.86349188112340
COSMOS 2538             
1 44424U 19039D   21217.87421607  .00000120  00000-0  19750-4 0  9997
2 44424  97.8207 271.7788 0007851 332.1506  27.9288 14.86183405112419
